H1 CPF  1  HTS 2005 12 14 12  8481 lageos1          NONE
H2  7603901 1155     8820 2005 12 14  0  0  0 2005 12 22  0  0  0   300 1 1  0 0 0
H5  0.2510 
H9 
10 0 53719  25800.00000  0   -4157596.051   -1140568.989   11425009.344
20 0     -2971.466055      5214.786684      -564.854909
10 0 53719  26100.00000  0   -4971802.383     448151.648   11143808.908
20 0     -2446.849367      5355.908680     -1306.765607
10 0 53719  26400.00000  0   -5620667.656    2060292.695   10643512.768
20 0     -1871.891953      5370.302881     -2023.065683
10 0 53719  26700.00000  0   -6091570.718    3657440.382    9933958.459
20 0     -1263.289591      5255.877380     -2699.503572
10 0 53719  27000.00000  0   -6377014.676    5201046.079    9029144.368
20 0      -638.426696      5013.831417     -3322.641044
10 0 53719  27300.00000  0   -6474759.439    6653414.760    7946942.409
20 0       -14.880960      4648.647343     -3880.138527
10 0 53719  27600.00001  0   -6387804.880    7978677.133    6708728.602
20 0       590.074634      4167.989942     -4361.015987
10 0 53719  27900.00000  0   -6124226.122    9143717.911    5338939.916
20 0      1159.957081      3582.515341     -4755.882370
10 0 53719  28200.00000  0   -5696867.059   10119033.851    3864567.818
20 0      1679.530691      2905.595010     -5057.127270
10 0 53719  28500.00000  0   -5122902.674   10879497.297    2314600.645
20 0      2135.222166      2152.963635     -5259.069582
10 0 53719  28800.00000  0   -4423284.799   11405004.107     719428.325
20 0      2515.480666      1342.302508     -5358.059430
10 0 53719  29100.00000  0   -3622089.454   11680988.634    -889776.191
20 0      2811.072235       492.772371     -5352.531278
10 0 53719  29400.00000  0   -2745786.745   11698792.928   -2481684.051
20 0      3015.300600      -375.488551     -5243.007964
10 0 53719  29700.00000  0   -1822456.233   11455882.220   -4025431.660
20 0      3124.149342     -1241.884562     -5032.057355
10 0 53719  30000.00000  0    -880971.691   10955903.789   -5491222.175
20 0      3136.343806     -2085.883852     -4724.205430
10 0 53719  30300.00001  0      49820.841   10208591.166   -6850895.056
20 0      3053.334404     -2887.525918     -4325.811158
10 0 53719  30600.00000  0     941908.719    9229519.863   -8078453.096
20 0      2879.205615     -3627.901909     -3844.909250
10 0 53719  30900.00000  0    1768880.659    8039724.451   -9150538.236
20 0      2620.516930     -4289.597013     -3291.026902
10 0 53719  31200.00000  0    2506637.731    6665189.746  -10046849.243
20 0      2286.083356     -4857.086090     -2674.980548
10 0 53719  31500.00000  0    3134030.497    5136231.155  -10750496.151
20 0      1886.704116     -5317.075999     -2008.658361
10 0 53719  31800.00000  0    3633408.132    3486780.906  -11248287.948
20 0      1434.848683     -5658.790242     -1304.793564
10 0 53719  32100.00000  0    3991068.105    1753597.850  -11530951.421
20 0       944.309293     -5874.193472      -576.732742
10 0 53719  32400.00000  0    4197597.683     -24580.907  -11593280.146
20 0       429.828729     -5958.154795       161.797725
10 0 53719  32700.00000  0    4248101.112   -1807928.166  -11434213.412
20 0       -93.288343     -5908.549679       896.924879
10 0 53719  33000.00001  0    4142308.700   -3556436.183  -11056845.426
20 0      -609.572712     -5726.300752      1614.860589
10 0 53719  33300.00000  0    3884566.333   -5230829.342  -10468365.489
20 0     -1103.789258     -5415.357890      2302.130184
10 0 53719  33600.00000  0    3483706.089   -6793461.788   -9679930.113
20 0     -1561.329734     -4982.617860      2945.797381
10 0 53719  33900.00000  0    2952800.810   -8209181.918   -8706468.364
20 0     -1968.592433     -4437.783857      3533.684283
10 0 53719  34200.00000  0    2308807.663   -9446145.799   -7566422.153
20 0     -2313.341267     -3793.165615      4054.584687
10 0 53719  34500.00000  0    1572108.043  -10476561.855   -6281423.827
20 0     -2585.036510     -3063.421328      4498.468382
10 0 53719  34800.00000  0     765953.490  -11277349.642   -4875914.199
20 0     -2775.129169     -2265.243492      4856.673273
10 0 53719  35100.00000  0     -84170.218  -11830696.392   -3376705.259
20 0     -2877.310804     -1416.992198      5122.081356
10 0 53719  35400.00000  0    -951246.230  -12124496.303   -1812493.089
20 0     -2887.710831      -538.281238      5289.273900
10 0 53719  35700.00001  0   -1807480.179  -12152659.479    -213327.951
20 0     -2805.033924       350.475610      5354.660939
10 0 53719  36000.00000  0   -2625085.153  -11915279.936    1389949.995
20 0     -2630.631197      1228.548676      5316.580127
10 0 53719  36300.00000  0   -3377077.480  -11418655.225    2966299.455
20 0     -2368.500363      2075.395513      5175.360364
10 0 53719  36600.00000  0   -4038061.505  -10675153.879    4485080.068
20 0     -2025.212018      2871.169934      4933.346296
10 0 53719  36900.00000  0   -4584981.103   -9702931.043    5916655.587
20 0     -1609.761607      3597.222697      4594.880858
10 0 53719  37200.00000  0   -4997815.848   -8525496.994    7232985.329
20 0     -1133.349192      4236.579035      4166.244454
10 0 53719  37500.00000  0   -5260200.854   -7171147.695    8408190.866
20 0      -609.091721      4774.378596      3655.550756
10 0 53719  37800.00000  0   -5359951.019   -5672270.726    9419085.085
20 0       -51.674877      5198.264145      3072.600466
10 0 53719  38100.00000  0   -5289472.904   -4064543.826   10245651.405
20 0       523.046166      5498.706875      2428.695725
10 0 53719  38400.00001  0   -5046050.550   -2386046.661   10871461.873
20 0      1098.485937      5669.258092      1736.418991
10 0 53719  38700.00000  0   -4631995.095    -676309.156   11284024.175
20 0      1657.795279      5706.719334      1009.381169
10 0 53719  39000.00000  0   -4054651.982    1024678.253   11475049.170
20 0      2184.341800      5611.225376       261.944506
10 0 53719  39300.00000  0   -3326263.720    2677465.806   11440632.255
20 0      2662.190021      5386.237212      -491.073566
10 0 53719  39600.00000  0   -2463690.439    4244129.924   11181343.858
20 0      3076.566909      5038.444723     -1234.709104
10 0 53719  39900.00000  0   -1487994.743    5689216.214   10702226.278
20 0      3414.298688      4577.581218     -1954.166042
10 0 53719  40200.00000  0    -423901.536    6980614.167   10012696.270
20 0      3664.205324      4016.154508     -2635.129062
10 0 53719  40500.00000  0     700852.556    8090339.528    9126354.917
20 0      3817.440139      3369.101770     -3264.067432
10 0 53719  40800.00000  0    1856262.028    8995202.895    8060708.658
20 0      3867.763550      2653.377951     -3828.522293
10 0 53719  41100.00001  0    3010866.402    9677346.326    6836807.520
20 0      3811.741830      1887.489664     -4317.370136
10 0 53719  41400.00000  0    4132611.646   10124633.652    5478808.752
20 0      3648.864078      1090.988372     -4721.055564
10 0 53719  41700.00000  0    5189733.846   10330884.542    4013476.037
20 0      3381.573197       283.938271     -5031.786921
10 0 53719  42000.00000  0    6151639.103   10295947.220    2469626.308
20 0      3015.209901      -513.624371     -5243.689230
10 0 53719  42300.00000  0    6989753.860   10025609.866     877537.604
20 0      2557.872202     -1282.223138     -5352.910450
10 0 53719  42600.00000  0    7678321.066    9531355.863    -731667.675
20 0      2020.196087     -2003.447876     -5357.679037
10 0 53719  42900.00000  0    8195119.753    8829972.881   -2326649.430
20 0      1415.065859     -2660.420264     -5258.312669
10 0 53719  43200.00000  0    8522088.493    7943030.113   -3876472.013
20 0       757.264956     -3238.205267     -5057.179816
10 0 53719  43500.00000  0    8645836.712    6896241.560   -5351208.170
20 0        63.079733     -3724.157803     -4758.617524
10 0 53719  43800.00001  0    8558031.771    5718736.017   -6722512.343
20 0      -650.130335     -4108.197057     -4368.810241
10 0 53719  44100.00000  0    8255653.750    4442256.211   -7964152.489
20 0     -1364.382525     -4383.004073     -3895.635439
10 0 53719  44400.00000  0    7741113.907    3100310.365   -9052491.379
20 0     -2061.527841     -4544.141251     -3348.482304
10 0 53719  44700.00000  0    7022236.462    1727299.503   -9966910.272
20 0     -2723.703253     -4590.095079     -2738.049831
10 0 53719  45000.00000  0    6112106.751     357643.021  -10690169.668
20 0     -3333.768775     -4522.245675     -2076.130306
10 0 53719  45300.00000  0    5028791.639    -975076.270  -11208703.589
20 0     -3875.720714     -4344.768426     -1375.383389
10 0 53719  45600.00000  0    3794940.431   -2238928.185  -11512845.205
20 0     -4335.073969     -4064.473992      -649.104939
10 0 53719  45900.00000  0    2437276.477   -3404394.790  -11596982.717
20 0     -4699.207593     -3690.593332        89.006269
10 0 53719  46200.00000  0     985991.235   -4445058.133  -11459645.233
20 0     -4957.668808     -3234.514500       825.081768
10 0 53719  46500.00001  0    -525946.118   -5338202.605  -11103518.867
20 0     -5102.431283     -2709.477782      1545.315043
10 0 53719  46800.00000  0   -2063549.204   -6065320.386  -10535393.730
20 0     -5128.103807     -2130.235518      2236.190532
10 0 53719  47100.00000  0   -3590629.669   -6612510.324   -9766042.740
20 0     -5032.085663     -1512.682840      2884.708947
10 0 53719  47400.00000  0   -5070650.563   -6970762.448   -8810033.524
20 0     -4814.665071      -873.465573      3478.607779
10 0 53719  47700.00000  0   -6467600.267   -7136122.234   -7685475.087
20 0     -4479.057110      -229.571808      4006.575399
10 0 53719  48000.00000  0   -7746868.291   -7109730.765   -6413701.485
20 0     -4031.377749       402.085847      4458.456435
10 0 53719  48300.00000  0   -8876103.341   -6897739.131   -5018895.583
20 0     -3480.551237      1005.089487      4825.445285
99